{
  "type": "FeatureCollection",
  "features": [
    {
      "type": "Feature",
      "properties": {
        "norad_id": 38867,
        "name": "INTELSAT 23 (IS-23)",
        "group": "intelsat",
        "lat": 0.03414942974225663,
        "lon": 98.28989811107533,
        "alt_km": 35792.10573946531,
        "timestamp": "2025-12-24T03:53:29.310232+00:00",
        "meta_object_name": "INTELSAT 23 (IS-23)",
        "meta_object_id": "2012-057A",
        "meta_epoch": "2025-12-23T18:01:01.217856",
        "meta_mean_motion": 1.00264683,
        "meta_eccentricity": 0.0001075,
        "meta_inclination": 0.0167,
        "meta_ra_of_asc_node": 42.738,
        "meta_arg_of_pericenter": 264.3522,
        "meta_mean_anomaly": 2.6883,
        "meta_ephemeris_type": 0,
        "meta_classification_type": "U",
        "meta_norad_cat_id": 38867,
        "meta_element_set_no": 999,
        "meta_rev_at_epoch": 4819,
        "meta_bstar": 0,
        "meta_mean_motion_dot": -2.64e-06,
        "meta_mean_motion_ddot": 0,
        "tle_line1": "1 38867U 12057A   25357.75070854 -.00000264  00000+0  00000+0 0  9996",
        "tle_line2": "2 38867   0.0167  42.7380 0001075 264.3522   2.6883  1.00264683 48198"
      },
      "geometry": {
        "type": "Point",
        "coordinates": [
          98.28989811107533,
          0.03414942974225663
        ]
      }
    },
    {
      "type": "Feature",
      "properties": {
        "norad_id": 39360,
        "name": "FM-6",
        "group": "intelsat",
        "lat": -0.0022700871186112095,
        "lon": 35.11161089410341,
        "alt_km": 35796.5829727062,
        "timestamp": "2025-12-24T03:53:29.310244+00:00",
        "meta_object_name": "FM-6",
        "meta_object_id": "2013-058A",
        "meta_epoch": "2025-12-23T11:38:38.459904",
        "meta_mean_motion": 1.00269364,
        "meta_eccentricity": 0.0002971,
        "meta_inclination": 0.0125,
        "meta_ra_of_asc_node": 63.3346,
        "meta_arg_of_pericenter": 113.984,
        "meta_mean_anomaly": 333.4468,
        "meta_ephemeris_type": 0,
        "meta_classification_type": "U",
        "meta_norad_cat_id": 39360,
        "meta_element_set_no": 999,
        "meta_rev_at_epoch": 4431,
        "meta_bstar": 0,
        "meta_mean_motion_dot": 4e-08,
        "meta_mean_motion_ddot": 0,
        "tle_line1": "1 39360U 13058A   25357.48516736  .00000004  00000+0  00000+0 0  9992",
        "tle_line2": "2 39360   0.0125  63.3346 0002971 113.9840 333.4468  1.00269364 44315"
      },
      "geometry": {
        "type": "Point",
        "coordinates": [
          35.11161089410341,
          -0.0022700871186112095
        ]
      }
    },
    {
      "type": "Feature",
      "properties": {
        "norad_id": 40271,
        "name": "INTELSAT 30 (IS-30)",
        "group": "intelsat",
        "lat": 0.02081655732936806,
        "lon": 56.2388165573407,
        "alt_km": 35781.15964308538,
        "timestamp": "2025-12-24T03:53:29.310256+00:00",
        "meta_object_name": "INTELSAT 30 (IS-30)",
        "meta_object_id": "2014-062A",
        "meta_epoch": "2025-12-23T13:22:24.176064",
        "meta_mean_motion": 1.00269419,
        "meta_eccentricity": 0.0001607,
        "meta_inclination": 0.0118,
        "meta_ra_of_asc_node": 25.2315,
        "meta_arg_of_pericenter": 65.5054,
        "meta_mean_anomaly": 107.1564,
        "meta_ephemeris_type": 0,
        "meta_classification_type": "U",
        "meta_norad_cat_id": 40271,
        "meta_element_set_no": 999,
        "meta_rev_at_epoch": 503,
        "meta_bstar": 0,
        "meta_mean_motion_dot": -1.29e-06,
        "meta_mean_motion_ddot": 0,
        "tle_line1": "1 40271U 14062A   25357.55722426 -.00000129  00000+0  00000+0 0  9993",
        "tle_line2": "2 40271   0.0118  25.2315 0001607  65.5054 107.1564  1.00269419  5037"
      },
      "geometry": {
        "type": "Point",
        "coordinates": [
          56.2388165573407,
          0.02081655732936806
        ]
      }
    },
    {
      "type": "Feature",
      "properties": {
        "norad_id": 40333,
        "name": "DIRECTV 14",
        "group": "intelsat",
        "lat": 0.029335266268013048,
        "lon": 52.079709263863315,
        "alt_km": 35786.060793564524,
        "timestamp": "2025-12-24T03:53:29.310267+00:00",
        "meta_object_name": "DIRECTV 14",
        "meta_object_id": "2014-078B",
        "meta_epoch": "2025-12-23T00:40:39.129888",
        "meta_mean_motion": 1.00271593,
        "meta_eccentricity": 4.075e-05,
        "meta_inclination": 0.0215,
        "meta_ra_of_asc_node": 12.0937,
        "meta_arg_of_pericenter": 126.9823,
        "meta_mean_anomaly": 223.6888,
        "meta_ephemeris_type": 0,
        "meta_classification_type": "U",
        "meta_norad_cat_id": 40333,
        "meta_element_set_no": 999,
        "meta_rev_at_epoch": 4027,
        "meta_bstar": 0,
        "meta_mean_motion_dot": 0,
        "meta_mean_motion_ddot": 0,
        "tle_line1": "1 40333U 14078B   25357.02823067  .00000000  00000+0  00000+0 0  9991",
        "tle_line2": "2 40333   0.0215  12.0937 0000407 126.9823 223.6888  1.00271593 40275"
      },
      "geometry": {
        "type": "Point",
        "coordinates": [
          52.079709263863315,
          0.029335266268013048
        ]
      }
    },
    {
      "type": "Feature",
      "properties": {
        "norad_id": 40663,
        "name": "DIRECTV 15",
        "group": "intelsat",
        "lat": 0.023754493747343217,
        "lon": 48.414064176237765,
        "alt_km": 35788.37847444702,
        "timestamp": "2025-12-24T03:53:29.310279+00:00",
        "meta_object_name": "DIRECTV 15",
        "meta_object_id": "2015-026A",
        "meta_epoch": "2025-12-23T16:04:04.914912",
        "meta_mean_motion": 1.00267894,
        "meta_eccentricity": 5.61e-05,
        "meta_inclination": 0.0212,
        "meta_ra_of_asc_node": 18.8544,
        "meta_arg_of_pericenter": 150.3599,
        "meta_mean_anomaly": 61.3814,
        "meta_ephemeris_type": 0,
        "meta_classification_type": "U",
        "meta_norad_cat_id": 40663,
        "meta_element_set_no": 999,
        "meta_rev_at_epoch": 3870,
        "meta_bstar": 0,
        "meta_mean_motion_dot": 0,
        "meta_mean_motion_ddot": 0,
        "tle_line1": "1 40663U 15026A   25357.66950133  .00000000  00000+0  00000+0 0  9996",
        "tle_line2": "2 40663   0.0212  18.8544 0000561 150.3599  61.3814  1.00267894 38708"
      },
      "geometry": {
        "type": "Point",
        "coordinates": [
          48.414064176237765,
          0.023754493747343217
        ]
      }
    },
    {
      "type": "Feature",
      "properties": {
        "norad_id": 40664,
        "name": "SKY MEXICO-1",
        "group": "intelsat",
        "lat": 0.025205069897710708,
        "lon": 72.55835061873195,
        "alt_km": 35794.819200806385,
        "timestamp": "2025-12-24T03:53:29.310291+00:00",
        "meta_object_name": "SKY MEXICO-1",
        "meta_object_id": "2015-026B",
        "meta_epoch": "2025-12-23T17:28:36.325344",
        "meta_mean_motion": 1.00270618,
        "meta_eccentricity": 0.0002455,
        "meta_inclination": 0.009,
        "meta_ra_of_asc_node": 26.3464,
        "meta_arg_of_pericenter": 262.6384,
        "meta_mean_anomaly": 346.9167,
        "meta_ephemeris_type": 0,
        "meta_classification_type": "U",
        "meta_norad_cat_id": 40664,
        "meta_element_set_no": 999,
        "meta_rev_at_epoch": 3869,
        "meta_bstar": 0,
        "meta_mean_motion_dot": -2.13e-06,
        "meta_mean_motion_ddot": 0,
        "tle_line1": "1 40664U 15026B   25357.72819821 -.00000213  00000+0  00000+0 0  9999",
        "tle_line2": "2 40664   0.0090  26.3464 0002455 262.6384 346.9167  1.00270618 38690"
      },
      "geometry": {
        "type": "Point",
        "coordinates": [
          72.55835061873195,
          0.025205069897710708
        ]
      }
    },
    {
      "type": "Feature",
      "properties": {
        "norad_id": 40874,
        "name": "INTELSAT 34 (IS-34)",
        "group": "intelsat",
        "lat": 0.0229374707680484,
        "lon": 95.80638998033032,
        "alt_km": 35785.17855153662,
        "timestamp": "2025-12-24T03:53:29.310302+00:00",
        "meta_object_name": "INTELSAT 34 (IS-34)",
        "meta_object_id": "2015-039A",
        "meta_epoch": "2025-12-23T12:52:10.360128",
        "meta_mean_motion": 1.00270652,
        "meta_eccentricity": 7.22e-05,
        "meta_inclination": 0.0148,
        "meta_ra_of_asc_node": 311.8752,
        "meta_arg_of_pericenter": 208.9597,
        "meta_mean_anomaly": 69.0423,
        "meta_ephemeris_type": 0,
        "meta_classification_type": "U",
        "meta_norad_cat_id": 40874,
        "meta_element_set_no": 999,
        "meta_rev_at_epoch": 3786,
        "meta_bstar": 0,
        "meta_mean_motion_dot": -2.64e-06,
        "meta_mean_motion_ddot": 0,
        "tle_line1": "1 40874U 15039A   25357.53623102 -.00000264  00000+0  00000+0 0  9996",
        "tle_line2": "2 40874   0.0148 311.8752 0000722 208.9597  69.0423  1.00270652 37867"
      },
      "geometry": {
        "type": "Point",
        "coordinates": [
          95.80638998033032,
          0.0229374707680484
        ]
      }
    }
  ]
}